H1 CPF  1  DLR 2022 07 31 10  7122 technosat            
H2  1704205 6203    42829 2022 07 31 00 00 00 2022 08 07 00 00 00    60 1 1  0 0 0
H9
10 0 59791  43200.000000  0       -655373.762       -721884.540       6899405.404
10 0 59791  43260.000000  0       -849147.312       -307726.962       6908668.773
10 0 59791  43320.000000  0      -1035717.689        109387.017       6888708.790
10 0 59791  43380.000000  0      -1214282.527        527639.023       6839602.995
10 0 59791  43440.000000  0      -1384088.500        945198.209       6761551.188
10 0 59791  43500.000000  0      -1544434.498       1360229.167       6654874.760
10 0 59791  43560.000000  0      -1694674.576       1770899.944       6520015.575
10 0 59791  43620.000000  0      -1834220.596       2175390.097       6357534.334
10 0 59791  43680.000000  0      -1962544.573       2571898.758       6168108.504
10 0 59791  43740.000000  0      -2079180.736       2958652.715       5952529.724
10 0 59791  43800.000000  0      -2183727.245       3333914.361       5711700.760
10 0 59791  43860.000000  0      -2275847.626       3695989.625       5446632.099
10 0 59791  43920.000000  0      -2355271.930       4043235.836       5158437.969
10 0 59791  43980.000000  0      -2421797.511       4374069.393       4848331.885
10 0 59791  44040.000000  0      -2475289.456       4686973.248       4517621.763
10 0 59791  44100.000000  0      -2515680.698       4980504.155       4167704.584
10 0 59791  44160.000000  0      -2542971.780       5253299.663       3800060.607
10 0 59791  44220.000000  0      -2557230.256       5504084.760       3416247.144
10 0 59791  44280.000000  0      -2558589.729       5731678.127       3017891.979
10 0 59791  44340.000000  0      -2547248.579       5934998.015       2606686.459
10 0 59791  44400.000000  0      -2523468.348       6113067.723       2184378.242
10 0 59791  44460.000000  0      -2487571.784       6265020.593       1752763.717
10 0 59791  44520.000000  0      -2439940.536       6390104.473       1313680.186
10 0 59791  44580.000000  0      -2381012.569       6487685.674        868997.836
10 0 59791  44640.000000  0      -2311279.276       6557252.361        420611.491
10 0 59791  44700.000000  0      -2231282.315       6598417.337        -29567.754
10 0 59791  44760.000000  0      -2141610.204       6610920.259       -479620.988
10 0 59791  44820.000000  0      -2042894.681       6594629.245       -927630.071
10 0 59791  44880.000000  0      -1935806.810       6549541.785      -1371686.304
10 0 59791  44940.000000  0      -1821052.805       6475784.802      -1809898.993
10 0 59791  45000.000000  0      -1699369.805       6373614.085      -2240403.697
10 0 59791  45060.000000  0      -1571521.481       6243413.179      -2661370.362
10 0 59791  45120.000000  0      -1438293.571       6085691.693      -3071011.204
10 0 59791  45180.000000  0      -1300489.361       5901083.069      -3467588.442
10 0 59791  45240.000000  0      -1158925.113       5690341.693      -3849421.806
10 0 59791  45300.000000  0      -1014425.476       5454339.394      -4214895.701
10 0 59791  45360.000000  0       -867818.910       5194061.434      -4562465.970
10 0 59791  45420.000000  0       -719933.145       4910602.052      -4890666.323
10 0 59791  45480.000000  0       -571590.698       4605159.517      -5198114.410
10 0 59791  45540.000000  0       -423604.470       4279030.712      -5483517.511
10 0 59791  45600.000000  0       -276773.444       3933605.265      -5745677.782
10 0 59791  45660.000000  0       -131878.516       3570359.286      -5983497.034
10 0 59791  45720.000000  0         10321.506       3190848.743      -6195981.036
10 0 59791  45780.000000  0        149093.707       2796702.544      -6382243.316
10 0 59791  45840.000000  0        283734.674       2389615.406      -6541508.494
10 0 59791  45900.000000  0        413573.936       1971340.518      -6673115.222
10 0 59791  45960.000000  0        537977.181       1543681.920      -6776518.713
10 0 59791  46020.000000  0        656349.241       1108486.643      -6851292.678
10 0 59791  46080.000000  0        768136.821        667636.809      -6897130.819
10 0 59791  46140.000000  0        872831.013        223041.547      -6913847.948
10 0 59791  46200.000000  0        969969.520       -223371.254      -6901380.554
10 0 59791  46260.000000  0       1059138.618       -669663.178      -6859786.851
10 0 59791  46320.000000  0       1139974.862      -1113893.518      -6789246.420
10 0 59791  46380.000000  0       1212166.507      -1554127.538      -6690059.411
10 0 59791  46440.000000  0       1275454.661      -1988444.694      -6562645.342
10 0 59791  46500.000000  0       1329634.214      -2414946.858      -6407541.484
10 0 59791  46560.000000  0       1374554.471      -2831766.521      -6225400.788
10 0 59791  46620.000000  0       1410119.442      -3237074.964      -6016989.388
10 0 59791  46680.000000  0       1436287.859      -3629090.341      -5783183.541
10 0 59791  46740.000000  0       1453072.923      -4006085.505      -5524966.097
10 0 59791  46800.000000  0       1460541.791      -4366395.607      -5243422.552
10 0 59791  46860.000000  0       1458814.786      -4708425.474      -4939736.741
10 0 59791  46920.000000  0       1448064.325      -5030656.787      -4615186.159
10 0 59791  46980.000000  0       1428513.539      -5331655.047      -4271136.831
10 0 59791  47040.000000  0       1400434.611      -5610076.172      -3909037.718
10 0 59791  47100.000000  0       1364146.859      -5864672.703      -3530414.763
10 0 59791  47160.000000  0       1320014.588      -6094299.607      -3136864.599
10 0 59791  47220.000000  0       1268444.698      -6297919.699      -2730047.920
10 0 59791  47280.000000  0       1209884.075      -6474608.597      -2311682.522
10 0 59791  47340.000000  0       1144816.749      -6623559.163      -1883536.039
10 0 59791  47400.000000  0       1073760.842      -6744085.442      -1447418.453
10 0 59791  47460.000000  0        997265.292      -6835626.038      -1005174.348
10 0 59791  47520.000000  0        915906.437      -6897746.876       -558674.974
10 0 59791  47580.000000  0        830284.481      -6930143.380       -109810.224
10 0 59791  47640.000000  0        741019.825      -6932642.074        339519.482
10 0 59791  47700.000000  0        648749.270      -6905201.568        787411.418
10 0 59791  47760.000000  0        554122.159      -6847912.898       1231968.781
10 0 59791  47820.000000  0        457796.467      -6760999.274       1671308.916
10 0 59791  47880.000000  0        360434.848      -6644815.145       2103571.504
10 0 59791  47940.000000  0        262700.675      -6499844.632       2526926.627
10 0 59791  48000.000000  0        165254.107      -6326699.267       2939582.670
10 0 59791  48060.000000  0         68748.152      -6126115.166       3339793.962
10 0 59791  48120.000000  0        -26175.214      -5898949.629       3725868.133
10 0 59791  48180.000000  0       -118888.781      -5646177.313       4096173.222
10 0 59791  48240.000000  0       -208783.768      -5368885.847       4449144.603
10 0 59791  48300.000000  0       -295273.364      -5068270.870       4783291.559
10 0 59791  48360.000000  0       -377796.094      -4745630.615       5097203.417
10 0 59791  48420.000000  0       -455819.020      -4402360.156       5389555.391
10 0 59791  48480.000000  0       -528840.773      -4039945.176       5659114.097
10 0 59791  48540.000000  0       -596394.400      -3659955.292       5904742.607
10 0 59791  48600.000000  0       -658049.988      -3264037.056       6125405.015
10 0 59791  48660.000000  0       -713417.064      -2853906.703       6320170.527
10 0 59791  48720.000000  0       -762146.777      -2431342.699       6488217.122
10 0 59791  48780.000000  0       -803933.829      -1998178.086       6628834.851
10 0 59791  48840.000000  0       -838518.166      -1556292.576       6741428.719
10 0 59791  48900.000000  0       -865686.432      -1107604.435       6825521.131
10 0 59791  48960.000000  0       -885273.180       -654062.191       6880753.851
10 0 59791  49020.000000  0       -897161.810       -197636.234       6906889.469
10 0 59791  49080.000000  0       -901285.211        259689.633       6903812.411
10 0 59791  49140.000000  0       -897626.128        715926.761       6871529.515
10 0 59791  49200.000000  0       -886217.245       1169090.228       6810170.079
10 0 59791  49260.000000  0       -867140.994       1617207.398       6719985.460
10 0 59791  49320.000000  0       -840529.104       2058326.467       6601348.215
10 0 59791  49380.000000  0       -806561.863       2490524.944       6454750.732
10 0 59791  49440.000000  0       -765467.128       2911918.006       6280803.447
10 0 59791  49500.000000  0       -717519.075       3320666.834       6080232.573
10 0 59791  49560.000000  0       -663036.669       3714986.737       5853877.270
10 0 59791  49620.000000  0       -602381.861       4093155.055       5602686.402
10 0 59791  49680.000000  0       -535957.545       4453518.848       5327714.854
10 0 59791  49740.000000  0       -464205.294       4794502.407       5030119.439
10 0 59791  49800.000000  0       -387602.841       5114614.535       4711154.241
10 0 59791  49860.000000  0       -306661.308       5412455.409       4372165.391
10 0 59791  49920.000000  0       -221922.217       5686722.857       4014585.469
10 0 59791  49980.000000  0       -133954.368       5936218.283       3639927.798
10 0 59791  50040.000000  0        -43350.586       6159852.520       3249780.319
10 0 59791  50100.000000  0         49275.757       6356651.285       2845798.789
10 0 59791  50160.000000  0        143294.455       6525759.854       2429699.383
10 0 59791  50220.000000  0        238062.287       6666446.860       2003251.280
10 0 59791  50280.000000  0        332926.845       6778107.828       1568269.063
10 0 59791  50340.000000  0        427230.498       6860268.038       1126604.730
99
